ICEYE-X72               
1 68504U 26067CS  26200.85009810  .00113137  00000+0  96707-2 0  9991
2 68504  97.7643 158.7866 0001420 172.6994 187.4248 14.97054220 16608
ICEYE-X78               
1 68995U 26100R   26201.14338434  .00000463  00000+0  51350-4 0  9997
2 68995  97.7326  97.9824 0003290  44.3969 315.7513 14.91817339 11611
ICEYE-X82               
1 68996U 26100S   26201.16660608  .00001076  00000+0  11321-3 0  9995
2 68996  97.7322  97.9462 0005560  51.6682 308.5036 14.91437058 11617
