{"fetched_at":"2026-07-20T18:29:28.020Z","source":"https://celestrak.org/NORAD/elements/gp.php?NAME=ICEYE&FORMAT=JSON","constellation":"iceye","records":[{"OBJECT_NAME":"ICEYE-X72","OBJECT_ID":"2026-067CS","EPOCH":"2026-07-19T20:24:08.475840","CLASSIFICATION_TYPE":"U","MEAN_MOTION":14.9705422,"ECCENTRICITY":0.00014202,"INCLINATION":97.7643,"RA_OF_ASC_NODE":158.7866,"ARG_OF_PERICENTER":172.6994,"MEAN_ANOMALY":187.4248,"EPHEMERIS_TYPE":0,"NORAD_CAT_ID":68504,"ELEMENT_SET_NO":999,"REV_AT_EPOCH":1660,"BSTAR":0.0096707186,"MEAN_MOTION_DOT":0.00113137,"MEAN_MOTION_DDOT":0},{"OBJECT_NAME":"ICEYE-X78","OBJECT_ID":"2026-100R","EPOCH":"2026-07-20T03:26:28.406976","CLASSIFICATION_TYPE":"U","MEAN_MOTION":14.91817339,"ECCENTRICITY":0.00032905,"INCLINATION":97.7326,"RA_OF_ASC_NODE":97.9824,"ARG_OF_PERICENTER":44.3969,"MEAN_ANOMALY":315.7513,"EPHEMERIS_TYPE":0,"NORAD_CAT_ID":68995,"ELEMENT_SET_NO":999,"REV_AT_EPOCH":1161,"BSTAR":0.000051349836,"MEAN_MOTION_DOT":0.00000463,"MEAN_MOTION_DDOT":0},{"OBJECT_NAME":"ICEYE-X82","OBJECT_ID":"2026-100S","EPOCH":"2026-07-20T03:59:54.765312","CLASSIFICATION_TYPE":"U","MEAN_MOTION":14.91437058,"ECCENTRICITY":0.00055609,"INCLINATION":97.7322,"RA_OF_ASC_NODE":97.9462,"ARG_OF_PERICENTER":51.6682,"MEAN_ANOMALY":308.5036,"EPHEMERIS_TYPE":0,"NORAD_CAT_ID":68996,"ELEMENT_SET_NO":999,"REV_AT_EPOCH":1161,"BSTAR":0.00011321048,"MEAN_MOTION_DOT":0.00001076,"MEAN_MOTION_DDOT":0}]}
